COSMOS 1975
1 19573U 88093A   21239.62909655  .00000195  00000-0  11589-4 0  9995
2 19573  82.5191 301.5891 0015882 113.2240 247.0661 15.05243600790252
SL-14 R/B
1 19574U 88093B   21239.80075564  .00000109  00000-0  10300-4 0  9994
2 19574  82.5343 152.0166 0023109 102.1727 316.2736 14.83381945755550
SL-16 R/B
1 19650U 88102B   21239.76449532 -.00000018  00000-0  15389-4 0  9997
2 19650  71.0005  32.4284 0014109   1.3783 358.7376 14.15806265692639
INTERCOSMOS 24
1 20261U 89080A   21239.65015801 -.00000064  00000-0 -26731-4 0  9994
2 20261  82.5994  97.9959 1202516 161.2127 203.7654 12.56208827458763
SL-14 R/B
1 20262U 89080C   21240.32386134  .00000187  00000-0  52289-4 0  9992
2 20262  82.5960 154.1081 1237349   1.0809 359.2532 12.48979835453097
DELTA 2 R/B(1)
1 20303U 89085B   21239.74972376  .00004375  00000-0  13383-3 0  9990
2 20303  35.6410 145.3741 0087789 101.4640 259.5962 15.29697578735393
DELTA 1 R/B
1 20323U 89089B   21239.76355217  .00000043  00000-0  20485-4 0  9997
2 20323  97.1206 322.9653 0070268 299.2111  60.2070 14.48414176656029
ARIANE 40 R/B
1 20443U 90005H   21239.75222339  .00000032  00000-0  24968-4 0  9995
2 20443  98.5235 305.4876 0011506 120.0734 240.1595 14.38140263654823
DELTA 2 R/B(1)
1 20453U 90008B   21239.37913630  .00003281  00000-0  18043-3 0  9993
2 20453  35.6237 203.5506 0276218 346.9144  12.4514 14.86795239676088
COSMOS 2058
1 20465U 90010A   21240.40052462  .00000707  00000-0  57101-4 0  9991
2 20465  82.4887 212.8047 0015798 162.0223 198.1563 14.98260834714859
SL-14 R/B
1 20466U 90010B   21240.42490470  .00000127  00000-0  13236-4 0  9996
2 20466  82.5049  17.8163 0020074 346.2473  13.8191 14.81434808704483
SL-14 R/B
1 20511U 90018B   21240.33366873  .00000132  00000-0  14314-4 0  9998
2 20511  82.5254 326.2442 0018766 122.5652 301.8728 14.80089283698837
HST
1 20580U 90037B   21239.65509544  .00000670  00000-0  29527-4 0  9991
2 20580  28.4705 313.9367 0002911 107.8617  20.3420 15.09714089521764
SL-16 R/B
1 20625U 90046B   21239.78160313  .00000294  00000-0  17721-3 0  9996
2 20625  70.9993 172.3510 0016128 295.5337  64.4118 14.14670076614321
COSMOS 2084
1 20663U 90055A   21239.17872241  .00000227  00000-0  39068-4 0  9996
2 20663  62.7942 153.1061 0080869  16.6162 343.7553 14.92292499688372
SL-6 R/B(2)
1 20666U 90055D   21240.02968681  .00000171  00000-0  32961-4 0  9992
2 20666  62.7843  65.5794 0106963  42.7764 318.1591 14.92545883689924
SL-8 R/B
1 20775U 90078B   21239.46277158  .00002024  00000-0  98023-4 0  9996
2 20775  82.9251 226.5844 0564253 282.2838  71.5750 14.36282092568280
SL-8 R/B
1 21088U 91006B   21240.32989707  .00000022  00000-0  69534-5 0  9995
2 21088  82.9445 320.4089 0022201 351.5655  73.6615 13.77175676536615
OKEAN-3
1 21397U 91039A   21240.14786380  .00000479  00000-0  43306-4 0  9990
2 21397  82.5215 121.5494 0018537 143.7979 216.4500 14.93145400638485
COSMOS 2151
1 21422U 91042A   21239.66161021  .00000255  00000-0  22478-4 0  9996
2 21422  82.4987 227.5903 0013243 210.0380 150.0081 14.92286852615864
SL-14 R/B
1 21423U 91042B   21239.73185674  .00000088  00000-0  86892-5 0  9990
2 21423  82.4965 329.1405 0016064 269.9414  89.9958 14.79838093608187
ERS-1
1 21574U 91050A   21239.82682006  .00000041  00000-0  28323-4 0  9990
2 21574  98.6534 200.7971 0034121  70.4471 290.0395 14.37810891577825
ARIANE 40 R/B
1 21610U 91050F   21239.77650934  .00000022  00000-0  20329-4 0  9997
2 21610  98.4186 309.4504 0003898  46.7662  65.9057 14.40960832580532
INTERCOSMOS 25
1 21819U 91086A   21239.49752748  .00000700  00000-0  13360-3 0  9991
2 21819  82.5799 224.9678 1517162  62.7320 312.0033 12.05286776296816
SL-8 R/B
1 21876U 92008B   21239.85762866 -.00000023  00000-0 -39367-4 0  9997
2 21876  82.9241  58.0523 0036070  76.1066  36.7838 13.75682195481877
SL-8 R/B
1 21938U 92020B   21240.40746064  .00000006  00000-0 -88806-5 0  9998
2 21938  82.9299 302.1602 0028217 232.7161 137.9416 13.75292127474038
COSMOS 2219
1 22219U 92076A   21239.73492761  .00000182  00000-0  12112-3 0  9997
2 22219  71.0586 236.3096 0019169 214.0650 145.9244 14.13669694484462
SL-16 R/B
1 22220U 92076B   21239.79197956  .00000054  00000-0  50932-4 0  9994
2 22220  70.9997  73.0563 0010650  98.5919 345.3011 14.16475381487464
COSMOS 2221
1 22236U 92080A   21239.51376069  .00000230  00000-0  22321-4 0  9997
2 22236  82.5063  51.5694 0015551 318.1470  41.8557 14.88088197534110
SL-16 R/B
1 22285U 92093B   21239.73986369  .00000230  00000-0  14327-3 0  9995
2 22285  71.0195 237.2133 0006109 298.1677  61.8828 14.15065716479011
COSMOS 2228
1 22286U 92094A   21240.41001891  .00000411  00000-0  41530-4 0  9990
2 22286  82.5225   7.4836 0022512  71.2454 289.1204 14.88314810550508
SL-16 R/B
1 22566U 93016B   21239.79190417 -.00000287  00000-0 -12357-3 0  9995
2 22566  71.0064  89.8303 0011981 313.1598  46.8523 14.14973506468053
COSMOS 2242
1 22626U 93024A   21239.82597695  .00000248  00000-0  24057-4 0  9990
2 22626  82.5216  36.3415 0020353  73.3733 286.9718 14.88163678533739
SL-16 R/B
1 22803U 93059B   21239.78774772 -.00000017  00000-0  15600-4 0  9992
2 22803  70.9881 259.7168 0018551 217.9118 142.0701 14.16843224445101
ARIANE 40 R/B
1 22830U 93061H   21239.74718110 -.00000017  00000-0  10365-4 0  9998
2 22830  98.7077 297.5227 0011956 120.2714 239.9654 14.31488689457240
COSMOS 2278
1 23087U 94023A   21239.78561182 -.00000305  00000-0 -13614-3 0  9991
2 23087  71.0541  35.6265 0007814  20.6893 339.4544 14.13830219410868
SL-16 R/B
1 23088U 94023B   21239.60000877 -.00000146  00000-0 -50901-4 0  9996
2 23088  70.9997 305.6751 0005519 282.8749  77.1756 14.14688415411990
SL-16 R/B
1 23343U 94074B   21240.17544856  .00000102  00000-0  21687-4 0  9999
2 23343  97.9398 293.6909 0006975 171.8312 253.2556 14.76896595443087
SL-16 R/B
1 23405U 94077B   21239.72801436  .00000214  00000-0  13465-3 0  9998
2 23405  70.9809 233.1242 0002680 208.2551 151.8426 14.15244255382064
ERS-2
1 23560U 95021A   21240.35702094  .00002250  00000-0  96208-4 0  9990
2 23560  98.5407 100.4673 0004536 112.5684 247.6030 15.24146199408676
ARIANE 40+ R/B
1 23561U 95021B   21240.41030425  .00000063  00000-0  35867-4 0  9994
2 23561  98.6685 290.8889 0007658  45.1996 325.6604 14.38041973381597
SL-16 R/B
1 23705U 95058B   21240.21069418 -.00000038  00000-0  49075-5 0  9996
2 23705  71.0228  52.5685 0010510 127.1429 233.0655 14.15155724334068
SL-16 R/B
1 24298U 96051B   21240.25345009 -.00000136  00000-0 -47201-4 0  9993
2 24298  70.8251  69.4906 0013330  60.8663 299.3790 14.12423969288292
ORBVIEW 2 (SEASTAR)
1 24883U 97037A   21239.82756199  .00000062  00000-0  38497-4 0  9998
2 24883  98.6497 357.8384 0001304 241.1136 118.9918 14.33629775271233
SL-16 R/B
1 25400U 98043G   21239.81828903 -.00000001  00000-0  17965-4 0  9995
2 25400  98.6411 174.6223 0010568 138.7964 221.4016 14.25481085203183
SL-16 R/B
1 25407U 98045B   21239.82173019  .00000229  00000-0  14047-3 0  9994
2 25407  71.0112  60.4984 0006825  12.0295 348.0990 14.15842217192845
ISS (ZARYA)
1 25544U 98067A   21240.69275648  .00002978  00000-0  63170-4 0  9993
2 25544  51.6454 344.1830 0002852 327.0198 138.5297 15.48536754299831
CZ-4B R/B
1 25732U 99025C   21239.71770973 -.00000026  00000-0  93645-5 0  9993
2 25732  98.8973 276.3150 0038088  47.6181  61.0957 14.17698081153634
OKEAN-O
1 25860U 99039A   21240.15047501  .00000143  00000-0  28038-4 0  9996
2 25860  98.1786 271.8627 0000812  89.6987 270.4316 14.76755709190052
SL-16 R/B
1 25861U 99039B   21239.62083093  .00000040  00000-0  12984-4 0  9992
2 25861  98.2032 256.3648 0015281 192.3234 280.3865 14.78657897192076
DELTA 2 R/B
1 25876U 99041E   21240.13415996  .00000518  00000-0  12792-3 0  9996
2 25876  51.7661  26.2278 0531505 177.7524 182.5979 14.04614091130011
HELIOS 1B
1 25977U 99064A   21239.76691580  .00000045  00000-0  12782-4 0  9990
2 25977  98.3215  57.1105 0002071  55.6471 304.4937 14.82576316439769
TERRA
1 25994U 99068A   21240.39882008  .00000120  00000-0  36531-4 0  9993
2 25994  98.1717 313.4906 0001442  98.5164 325.0963 14.57133853153944
SL-16 R/B
1 26070U 00006B   21239.68972562 -.00000222  00000-0 -89176-4 0  9996
2 26070  71.0043 336.5476 0016806 188.6178 171.4659 14.15466424114349
MTI
1 26102U 00014A   21240.50896465  .00016225  00000-0  18184-3 0  9999
2 26102  97.4589 150.9557 0008264  63.7509 296.4801 15.62726479192592
TITAN 4B R/B
1 26474U 00047B   21239.68404292  .00000175  00000-0  25945-4 0  9998
2 26474  67.9946 314.7240 0051154  76.5810 284.1027 14.96203993144492
ENVISAT
1 27386U 02009A   21240.33655523  .00000072  00000-0  37404-4 0  9999
2 27386  98.1535 230.7378 0001361  85.6001  44.2086 14.38039203 21404
IDEFIX & ARIANE 42P R/B
1 27422U 02021B   21239.79141217  .00000012  00000-0  21224-4 0  9999
2 27422  98.4071 190.2712 0012893  27.5287 332.6576 14.29328246  7509
AQUA
1 27424U 02022A   21240.42994584  .00000129  00000-0  38641-4 0  9997
2 27424  98.2118 180.7333 0002303  74.4508  36.9766 14.57105589 27552
CZ-4B R/B
1 27432U 02024C   21239.77977620 -.00000035  00000-0  59470-5 0  9997
2 27432  99.0846 255.3706 0050867  26.6299 147.2549 14.14112839995317
MIDORI II (ADEOS-II)
1 27597U 02056A   21239.79865288  .00000024  00000-0  27186-4 0  9997
2 27597  98.5676 183.6987 0001781 113.6427 246.4941 14.27512721974064
H-2A R/B
1 27601U 02056E   21240.09713392  .00000107  00000-0  53202-4 0  9996
2 27601  98.1878 258.3409 0073186  56.9180  10.1526 14.32012085977176
CZ-4B R/B
1 28059U 03049C   21239.82100007  .00000042  00000-0  21858-4 0  9999
2 28059  98.4933 167.4855 0048943 244.1995 115.4146 14.52664734946182
CZ-2C R/B
1 28222U 04012C   21239.82139708  .00001017  00000-0  63561-4 0  9992
2 28222  97.7338 211.3684 0045962 339.3175  81.2574 15.11004398951876
